[
    {
        "Altitude(m)": 706555.650327765,
        "Argument of Periapsis(deg)": 0.011390121186627068,
        "Eccentricity": 0.0,
        "Inclination(deg)": 45.0,
        "Latitude(deg)": -14.940602655286217,
        "Longitude(deg)": -166.164892298555,
        "Mean Anomaly(deg)": -21.194083352519186,
        "RAAN(deg)": 309.98924805854176,
        "Satellite Name": "Constellation 1 1384",
        "Satellite Number": 1384,
        "Semi-Major Axis(m)": 7083131.272910544,
        "Time(s)": 190
    },
    {
        "Altitude(m)": 706543.8579660926,
        "Argument of Periapsis(deg)": 0.011450069192872472,
        "Eccentricity": 0.0,
        "Inclination(deg)": 45.0,
        "Latitude(deg)": -14.898989297578607,
        "Longitude(deg)": -166.12315453953212,
        "Mean Anomaly(deg)": -21.13338221226925,
        "RAAN(deg)": 309.98919146937624,
        "Satellite Name": "Constellation 1 1384",
        "Satellite Number": 1384,
        "Semi-Major Axis(m)": 7083131.272910544,
        "Time(s)": 191
    },
    {
        "Altitude(m)": 706532.0786455797,
        "Argument of Periapsis(deg)": 0.01151001719911788,
        "Eccentricity": 0.0,
        "Inclination(deg)": 45.0,
        "Latitude(deg)": -14.857366528583295,
        "Longitude(deg)": -166.08143427171177,
        "Mean Anomaly(deg)": -21.072681072019414,
        "RAAN(deg)": 309.98913488021066,
        "Satellite Name": "Constellation 1 1384",
        "Satellite Number": 1384,
        "Semi-Major Axis(m)": 7083131.272910544,
        "Time(s)": 192
    },
    {
        "Altitude(m)": 706520.312401775,
        "Argument of Periapsis(deg)": 0.011569965205363285,
        "Eccentricity": 0.0,
        "Inclination(deg)": 45.0,
        "Latitude(deg)": -14.815734378849895,
        "Longitude(deg)": -166.03973160908143,
        "Mean Anomaly(deg)": -21.011979931769527,
        "RAAN(deg)": 309.98907829104513,
        "Satellite Name": "Constellation 1 1384",
        "Satellite Number": 1384,
        "Semi-Major Axis(m)": 7083131.272910544,
        "Time(s)": 193
    },
    {
        "Altitude(m)": 706508.5592701606,
        "Argument of Periapsis(deg)": 0.01162991321160869,
        "Eccentricity": 0.0,
        "Inclination(deg)": 45.0,
        "Latitude(deg)": -14.774092878895274,
        "Longitude(deg)": -165.9980461613668,
        "Mean Anomaly(deg)": -20.95127879151959,
        "RAAN(deg)": 309.98902170187955,
        "Satellite Name": "Constellation 1 1384",
        "Satellite Number": 1384,
        "Semi-Major Axis(m)": 7083131.272910544,
        "Time(s)": 194
    },
    {
        "Altitude(m)": 706496.8192861534,
        "Argument of Periapsis(deg)": 0.011689861217854095,
        "Eccentricity": 0.0,
        "Inclination(deg)": 45.0,
        "Latitude(deg)": -14.732442059202082,
        "Longitude(deg)": -165.95637804261446,
        "Mean Anomaly(deg)": -20.890577651269705,
        "RAAN(deg)": 309.9889651127139,
        "Satellite Name": "Constellation 1 1384",
        "Satellite Number": 1384,
        "Semi-Major Axis(m)": 7083131.272910544,
        "Time(s)": 195
    },
    {
        "Altitude(m)": 706485.0924851028,
        "Argument of Periapsis(deg)": 0.0117498092240995,
        "Eccentricity": 0.0,
        "Inclination(deg)": 45.0,
        "Latitude(deg)": -14.690781950219682,
        "Longitude(deg)": -165.9147271988031,
        "Mean Anomaly(deg)": -20.829876511019766,
        "RAAN(deg)": 309.9889085235484,
        "Satellite Name": "Constellation 1 1384",
        "Satellite Number": 1384,
        "Semi-Major Axis(m)": 7083131.272910544,
        "Time(s)": 196
    },
    {
        "Altitude(m)": 706473.3789022951,
        "Argument of Periapsis(deg)": 0.011809757230344905,
        "Eccentricity": 0.0,
        "Inclination(deg)": 45.0,
        "Latitude(deg)": -14.64911258236436,
        "Longitude(deg)": -165.87309357594103,
        "Mean Anomaly(deg)": -20.76917537076988,
        "RAAN(deg)": 309.9888519343828,
        "Satellite Name": "Constellation 1 1384",
        "Satellite Number": 1384,
        "Semi-Major Axis(m)": 7083131.272910544,
        "Time(s)": 197
    },
    {
        "Altitude(m)": 706461.678572948,
        "Argument of Periapsis(deg)": 0.011869705236590313,
        "Eccentricity": 0.0,
        "Inclination(deg)": 45.0,
        "Latitude(deg)": -14.607433986018938,
        "Longitude(deg)": -165.83147712006578,
        "Mean Anomaly(deg)": -20.708474230519943,
        "RAAN(deg)": 309.9887953452173,
        "Satellite Name": "Constellation 1 1384",
        "Satellite Number": 1384,
        "Semi-Major Axis(m)": 7083131.272910544,
        "Time(s)": 198
    },
    {
        "Altitude(m)": 706449.9915322148,
        "Argument of Periapsis(deg)": 0.011929653242835719,
        "Eccentricity": 0.0,
        "Inclination(deg)": 45.0,
        "Latitude(deg)": -14.565746191533457,
        "Longitude(deg)": -165.7898777772444,
        "Mean Anomaly(deg)": -20.647773090270107,
        "RAAN(deg)": 309.9887387560517,
        "Satellite Name": "Constellation 1 1384",
        "Satellite Number": 1384,
        "Semi-Major Axis(m)": 7083131.272910544,
        "Time(s)": 199
    }
]